OBJECT_NAME,OBJECT_ID,EPOCH,MEAN_MOTION,ECCENTRICITY,INCLINATION,RA_OF_ASC_NODE,ARG_OF_PERICENTER,MEAN_ANOMALY,EPHEMERIS_TYPE,CLASSIFICATION_TYPE,NORAD_CAT_ID,ELEMENT_SET_NO,REV_AT_EPOCH,BSTAR,MEAN_MOTION_DOT,MEAN_MOTION_DDOT
SHIJIAN-17 (SJ-17),2016-065A,2026-06-30T18:31:20.984160,0.99860394,.0002242,5.7854,72.4442,32.9051,306.8431,0,U,41838,999,3533,0,.13E-5,0
GOES 16,2016-071A,2026-07-01T04:21:38.562048,1.00272074,.000059,0.3742,85.5173,24.6634,129.7792,0,U,41866,999,3524,0,-.81E-6,0
TIANLIAN 1-04,2016-072A,2026-07-01T04:27:38.666016,1.00274563,.0043081,0.9043,82.8297,90.3888,349.7631,0,U,41869,999,3544,0,.41E-6,0
WGS F8 (USA 272),2016-075A,2026-06-30T23:20:32.709984,1.00253485,.000094,0.0473,59.7129,252.7991,106.5169,0,U,41879,999,3495,0,0,0
FENGYUN 4A,2016-077A,2026-07-01T01:03:26.650944,1.00276946,.0007934,2.3565,80.1379,158.0505,180.4835,0,U,41882,999,3506,0,-.348E-5,0
ECHOSTAR 19,2016-079A,2026-07-01T03:36:38.809152,1.00272652,.0001678,0.0187,26.9551,75.6356,133.6820,0,U,41893,999,3484,0,-.128E-5,0
JCSAT-110A (JCSAT-15),2016-082A,2026-07-01T02:34:27.639840,1.00270060,.000087,0.0186,20.1968,88.5300,319.1205,0,U,41903,999,3489,0,-.34E-5,0
STAR ONE D1,2016-082B,2026-06-30T18:48:26.844192,1.00272047,.00024745,0.0026,359.1004,117.9725,359.8897,0,U,41904,999,3491,0,-.2E-5,0
TJS-2,2017-001A,2026-07-01T02:22:06.326112,1.00272965,.0000839,0.8675,85.1657,51.6285,244.4376,0,U,41911,999,3485,0,.3E-7,0
SBIRS GEO-4 (USA 273),2017-004A,2026-07-01T03:51:47.140128,1.00286597,.0003047,2.2682,43.6334,56.3049,258.2592,0,U,41937,999,3473,0,.135E-5,0
HISPASAT 36W-1,2017-006A,2026-07-01T03:35:33.696384,1.00271614,.0001008,0.0125,281.7847,177.3339,197.9813,0,U,41942,999,3438,0,-.234E-5,0
TELKOM 3S,2017-007A,2026-06-30T07:47:37.516992,1.00271221,.00025186,0.0230,76.9567,24.0057,52.3441,0,U,41944,999,3427,0,-.352E-5,0
INTELSAT 32E (IS-32E),2017-007B,2026-06-29T12:12:28.637856,1.00268307,.0000889,0.0243,13.6582,344.8527,59.0307,0,U,41945,999,3434,0,0,0
ECHOSTAR 23,2017-014A,2026-07-01T03:20:38.719392,1.00271510,.0001898,0.0179,12.6497,86.2078,120.6050,0,U,42070,999,3406,0,-.47E-6,0
WGS F9 (USA 275),2017-016A,2026-07-01T01:59:45.965760,1.00271042,.0000392,0.0253,7.9209,54.5724,234.6115,0,U,42075,999,3403,0,0,0
SES-10,2017-017A,2026-07-01T03:26:35.318112,1.00269056,.0003016,0.0190,40.2201,63.5996,160.1215,0,U,42432,999,3389,0,-.262E-5,0
CHINASAT 16 (SJ-13),2017-018A,2026-07-01T01:11:38.596992,1.00270369,.0004135,0.0909,89.6693,129.0916,188.7622,0,U,42662,999,3388,0,-.341E-5,0
KOREASAT 7,2017-023A,2026-07-01T00:53:34.208736,1.00268335,.0000715,0.0244,336.4087,86.5019,345.4606,0,U,42691,999,3350,0,-.351E-5,0
SGDC,2017-023B,2026-06-30T10:25:27.509088,1.00271873,.00028131,0.0310,68.2420,36.7838,255.0007,0,U,42692,999,3354,0,-.239E-5,0
GSAT-9,2017-024A,2026-07-01T00:48:12.222720,1.00273321,.0002103,0.0513,89.7319,20.4270,278.2963,0,U,42695,999,3343,0,-.276E-5,0
INMARSAT 5-F4,2017-025A,2026-07-01T00:36:35.836128,1.00271349,.0000209,0.0263,35.6434,27.4887,281.6144,0,U,42698,999,3341,0,0,0
SES-15,2017-026A,2026-06-30T23:43:42.154176,1.00268858,.0000722,0.0216,336.8301,110.3055,58.6709,0,U,42709,999,757,0,.71E-6,0
QZS-2 (MICHIBIKI-2),2017-028A,2026-06-30T11:22:28.547328,1.00280487,.07588097,39.4073,242.9582,269.4153,78.9182,0,U,42738,999,775,0,-.114E-5,0
VIASAT-2,2017-029A,2026-06-29T13:47:26.255616,1.00273030,.00005004,0.0183,302.2304,140.7256,331.6830,0,U,42740,999,3332,0,-.254E-5,0
EUTELSAT 172B,2017-029B,2026-07-01T02:51:54.259200,1.00270983,.0000347,0.0207,113.3183,305.0992,75.7407,0,U,42741,999,3388,0,.5E-7,0
GSAT-19,2017-031A,2026-07-01T03:59:23.911008,1.00272988,.0007022,0.0225,43.6802,36.3414,306.9275,0,U,42747,999,3328,0,0,0
ECHOSTAR 21,2017-032A,2026-06-30T12:24:49.023648,1.00274394,.0002581,1.7698,356.5504,95.1200,23.4050,0,U,42749,999,3323,0,.78E-6,0
BULGARIASAT-1,2017-038A,2026-07-01T03:46:17.665824,1.00270774,.0003002,0.0390,75.2313,30.0580,232.3893,0,U,42801,999,3298,0,.21E-6,0
HELLAS-SAT 3,2017-040A,2026-07-01T03:56:54.150432,1.00271548,.0004175,0.0481,45.2644,17.9433,314.2316,0,U,42814,999,3294,0,.163E-5,0
GSAT-17,2017-040B,2026-07-01T02:29:50.584416,1.00271147,.0001356,0.0386,86.5659,196.7553,126.8065,0,U,42815,999,3292,0,-.247E-5,0
INTELSAT 35E (IS-35E),2017-041A,2026-07-01T04:52:30.590976,1.00267260,.000232,0.0220,26.9335,72.9327,218.0168,0,U,42818,999,3295,0,0,0
COSMOS 2520,2017-046A,2026-07-01T03:58:38.982144,1.00272335,.000049,0.0409,104.2047,40.5856,239.0765,0,U,42907,999,3253,0,.147E-5,0
