SHIJIAN-17 (SJ-17)      
1 41838U 16065A   26181.77177065  .00000130  00000+0  00000+0 0  9992
2 41838   5.7854  72.4442 0002242  32.9051 306.8431  0.99860394 35335
GOES 16                 
1 41866U 16071A   26182.18169632 -.00000081  00000+0  00000+0 0  9993
2 41866   0.3742  85.5173 0000590  24.6634 129.7792  1.00272074 35245
TIANLIAN 1-04           
1 41869U 16072A   26182.18586419  .00000041  00000+0  00000+0 0  9998
2 41869   0.9043  82.8297 0043081  90.3888 349.7631  1.00274563 35441
WGS F8 (USA 272)        
1 41879U 16075A   26181.97260081  .00000000  00000+0  00000+0 0  9997
2 41879   0.0473  59.7129 0000940 252.7991 106.5169  1.00253485 34953
FENGYUN 4A              
1 41882U 16077A   26182.04405846 -.00000348  00000+0  00000+0 0  9998
2 41882   2.3565  80.1379 0007934 158.0505 180.4835  1.00276946 35069
ECHOSTAR 19             
1 41893U 16079A   26182.15044918 -.00000128  00000+0  00000+0 0  9999
2 41893   0.0187  26.9551 0001678  75.6356 133.6820  1.00272652 34842
JCSAT-110A (JCSAT-15)   
1 41903U 16082A   26182.10726435 -.00000340  00000+0  00000+0 0  9997
2 41903   0.0186  20.1968 0000870  88.5300 319.1205  1.00270060 34890
STAR ONE D1             
1 41904U 16082B   26181.78364403 -.00000200  00000+0  00000+0 0  9999
2 41904   0.0026 359.1004 0002474 117.9725 359.8897  1.00272047 34918
TJS-2                   
1 41911U 17001A   26182.09868433  .00000003  00000+0  00000+0 0  9996
2 41911   0.8675  85.1657 0000839  51.6285 244.4376  1.00272965 34855
SBIRS GEO-4 (USA 273)   
1 41937U 17004A   26182.16096227  .00000135  00000+0  00000+0 0  9995
2 41937   2.2682  43.6334 0003047  56.3049 258.2592  1.00286597 34738
HISPASAT 36W-1          
1 41942U 17006A   26182.14969556 -.00000234  00000+0  00000+0 0  9996
2 41942   0.0125 281.7847 0001008 177.3339 197.9813  1.00271614 34387
TELKOM 3S               
1 41944U 17007A   26181.32473978 -.00000352  00000+0  00000+0 0  9997
2 41944   0.0230  76.9567 0002518  24.0057  52.3441  1.00271221 34274
INTELSAT 32E (IS-32E)   
1 41945U 17007B   26180.50866479  .00000000  00000+0  00000+0 0  9998
2 41945   0.0243  13.6582 0000889 344.8527  59.0307  1.00268307 34342
ECHOSTAR 23             
1 42070U 17014A   26182.13933703 -.00000047  00000+0  00000+0 0  9994
2 42070   0.0179  12.6497 0001898  86.2078 120.6050  1.00271510 34062
WGS F9 (USA 275)        
1 42075U 17016A   26182.08317090  .00000000  00000+0  00000+0 0  9998
2 42075   0.0253   7.9209 0000392  54.5724 234.6115  1.00271042 34037
SES-10                  
1 42432U 17017A   26182.14346433 -.00000262  00000+0  00000+0 0  9997
2 42432   0.0190  40.2201 0003016  63.5996 160.1215  1.00269056 33892
CHINASAT 16 (SJ-13)     
1 42662U 17018A   26182.04975228 -.00000341  00000+0  00000+0 0  9990
2 42662   0.0909  89.6693 0004135 129.0916 188.7622  1.00270369 33886
KOREASAT 7              
1 42691U 17023A   26182.03720149 -.00000351  00000+0  00000+0 0  9998
2 42691   0.0244 336.4087 0000715  86.5019 345.4606  1.00268335 33504
SGDC                    
1 42692U 17023B   26181.43434617 -.00000239  00000+0  00000+0 0  9999
2 42692   0.0310  68.2420 0002813  36.7838 255.0007  1.00271873 33543
GSAT-9                  
1 42695U 17024A   26182.03347480 -.00000276  00000+0  00000+0 0  9992
2 42695   0.0513  89.7319 0002103  20.4270 278.2963  1.00273321 33434
INMARSAT 5-F4           
1 42698U 17025A   26182.02541477  .00000000  00000+0  00000+0 0  9991
2 42698   0.0263  35.6434 0000209  27.4887 281.6144  1.00271349 33418
SES-15                  
1 42709U 17026A   26181.98868234  .00000071  00000+0  00000+0 0  9990
2 42709   0.0216 336.8301 0000722 110.3055  58.6709  1.00268858  7575
QZS-2 (MICHIBIKI-2)     
1 42738U 17028A   26181.47394152 -.00000114  00000+0  00000+0 0  9990
2 42738  39.4073 242.9582 0758809 269.4153  78.9182  1.00280487  7755
VIASAT-2                
1 42740U 17029A   26180.57460944 -.00000254  00000+0  00000+0 0  9992
2 42740   0.0183 302.2304 0000500 140.7256 331.6830  1.00273030 33326
EUTELSAT 172B           
1 42741U 17029B   26182.11937800  .00000005  00000+0  00000+0 0  9998
2 42741   0.0207 113.3183 0000347 305.0992  75.7407  1.00270983 33883
GSAT-19                 
1 42747U 17031A   26182.16624897  .00000000  00000+0  00000+0 0  9996
2 42747   0.0225  43.6802 0007022  36.3414 306.9275  1.00272988 33285
ECHOSTAR 21             
1 42749U 17032A   26181.51723407  .00000078  00000+0  00000+0 0  9999
2 42749   1.7698 356.5504 0002581  95.1200  23.4050  1.00274394 33235
BULGARIASAT-1           
1 42801U 17038A   26182.15714891  .00000021  00000+0  00000+0 0  9990
2 42801   0.0390  75.2313 0003002  30.0580 232.3893  1.00270774 32981
HELLAS-SAT 3            
1 42814U 17040A   26182.16451563  .00000163  00000+0  00000+0 0  9999
2 42814   0.0481  45.2644 0004175  17.9433 314.2316  1.00271548 32949
GSAT-17                 
1 42815U 17040B   26182.10405769 -.00000247  00000+0  00000+0 0  9995
2 42815   0.0386  86.5659 0001356 196.7553 126.8065  1.00271147 32926
INTELSAT 35E (IS-35E)   
1 42818U 17041A   26182.20313184  .00000000  00000+0  00000+0 0  9995
2 42818   0.0220  26.9335 0002320  72.9327 218.0168  1.00267260 32953
COSMOS 2520             
1 42907U 17046A   26182.16572896  .00000147  00000+0  00000+0 0  9993
2 42907   0.0409 104.2047 0000490  40.5856 239.0765  1.00272335 32534
